CCSDS_OMM_VERS = 2.0
CREATION_DATE  = 
ORIGINATOR     = 

OBJECT_NAME    = OKEAN-3
OBJECT_ID      = 1991-039A
CENTER_NAME    = EARTH
REF_FRAME      = TEME
TIME_SYSTEM    = UTC
MEAN_ELEMENT_THEORY = SGP/SGP4

EPOCH          = 2025-11-18T17:32:33.612576
MEAN_MOTION    = 15.03890055
ECCENTRICITY   = .00142271
INCLINATION    = 82.5162
RA_OF_ASC_NODE = 84.2789
ARG_OF_PERICENTER = 354.4348
MEAN_ANOMALY   = 5.6718

EPHEMERIS_TYPE = 0
CLASSIFICATION_TYPE = U
NORAD_CAT_ID   = 21397
ELEMENT_SET_NO = 999
REV_AT_EPOCH   = 84835
BSTAR          = .27887269E-3
MEAN_MOTION_DOT = .3875E-4
MEAN_MOTION_DDOT = 0

CCSDS_OMM_VERS = 2.0
CREATION_DATE  = 
ORIGINATOR     = 

OBJECT_NAME    = COSMOS 2151
OBJECT_ID      = 1991-042A
CENTER_NAME    = EARTH
REF_FRAME      = TEME
TIME_SYSTEM    = UTC
MEAN_ELEMENT_THEORY = SGP/SGP4

EPOCH          = 2025-11-18T20:51:27.520992
MEAN_MOTION    = 14.99569677
ECCENTRICITY   = .0014109
INCLINATION    = 82.4980
RA_OF_ASC_NODE = 190.5027
ARG_OF_PERICENTER = 75.0549
MEAN_ANOMALY   = 285.2236

EPHEMERIS_TYPE = 0
CLASSIFICATION_TYPE = U
NORAD_CAT_ID   = 21422
ELEMENT_SET_NO = 999
REV_AT_EPOCH   = 84658
BSTAR          = .14764237E-3
MEAN_MOTION_DOT = .1845E-4
MEAN_MOTION_DDOT = 0

CCSDS_OMM_VERS = 2.0
CREATION_DATE  = 
ORIGINATOR     = 

OBJECT_NAME    = SL-14 R/B
OBJECT_ID      = 1991-042B
CENTER_NAME    = EARTH
REF_FRAME      = TEME
TIME_SYSTEM    = UTC
MEAN_ELEMENT_THEORY = SGP/SGP4

EPOCH          = 2025-11-18T22:38:51.692640
MEAN_MOTION    = 14.81707874
ECCENTRICITY   = .00156223
INCLINATION    = 82.4915
RA_OF_ASC_NODE = 324.0411
ARG_OF_PERICENTER = 242.6582
MEAN_ANOMALY   = 117.3043

EPHEMERIS_TYPE = 0
CLASSIFICATION_TYPE = U
NORAD_CAT_ID   = 21423
ELEMENT_SET_NO = 999
REV_AT_EPOCH   = 83667
BSTAR          = .66972255E-4
MEAN_MOTION_DOT = .551E-5
MEAN_MOTION_DDOT = 0

CCSDS_OMM_VERS = 2.0
CREATION_DATE  = 
ORIGINATOR     = 

OBJECT_NAME    = ERS-1
OBJECT_ID      = 1991-050A
CENTER_NAME    = EARTH
REF_FRAME      = TEME
TIME_SYSTEM    = UTC
MEAN_ELEMENT_THEORY = SGP/SGP4

EPOCH          = 2025-11-18T23:06:04.000320
MEAN_MOTION    = 14.39339065
ECCENTRICITY   = .00322054
INCLINATION    = 98.7917
RA_OF_ASC_NODE = 333.4214
ARG_OF_PERICENTER = 168.9752
MEAN_ANOMALY   = 191.2147

EPHEMERIS_TYPE = 0
CLASSIFICATION_TYPE = U
NORAD_CAT_ID   = 21574
ELEMENT_SET_NO = 999
REV_AT_EPOCH   = 79980
BSTAR          = .14909365E-3
MEAN_MOTION_DOT = .42E-5
MEAN_MOTION_DDOT = 0

CCSDS_OMM_VERS = 2.0
CREATION_DATE  = 
ORIGINATOR     = 

OBJECT_NAME    = ARIANE 40 R/B
OBJECT_ID      = 1991-050F
CENTER_NAME    = EARTH
REF_FRAME      = TEME
TIME_SYSTEM    = UTC
MEAN_ELEMENT_THEORY = SGP/SGP4

EPOCH          = 2025-11-18T13:59:54.015648
MEAN_MOTION    = 14.42784961
ECCENTRICITY   = .00040903
INCLINATION    = 98.2202
RA_OF_ASC_NODE = 13.8820
ARG_OF_PERICENTER = 63.4750
MEAN_ANOMALY   = 296.6860

EPHEMERIS_TYPE = 0
CLASSIFICATION_TYPE = U
NORAD_CAT_ID   = 21610
ELEMENT_SET_NO = 999
REV_AT_EPOCH   = 80297
BSTAR          = .16807987E-3
MEAN_MOTION_DOT = .518E-5
MEAN_MOTION_DDOT = 0

CCSDS_OMM_VERS = 2.0
CREATION_DATE  = 
ORIGINATOR     = 

OBJECT_NAME    = INTERCOSMOS 25
OBJECT_ID      = 1991-086A
CENTER_NAME    = EARTH
REF_FRAME      = TEME
TIME_SYSTEM    = UTC
MEAN_ELEMENT_THEORY = SGP/SGP4

EPOCH          = 2025-11-18T14:38:08.134368
MEAN_MOTION    = 12.11623305
ECCENTRICITY   = .14879242
INCLINATION    = 82.6086
RA_OF_ASC_NODE = 17.1633
ARG_OF_PERICENTER = 356.4241
MEAN_ANOMALY   = 2.7050

EPHEMERIS_TYPE = 0
CLASSIFICATION_TYPE = U
NORAD_CAT_ID   = 21819
ELEMENT_SET_NO = 999
REV_AT_EPOCH   = 48323
BSTAR          = .39072509E-3
MEAN_MOTION_DOT = .1991E-4
MEAN_MOTION_DDOT = 0

CCSDS_OMM_VERS = 2.0
CREATION_DATE  = 
ORIGINATOR     = 

OBJECT_NAME    = SL-8 R/B
OBJECT_ID      = 1992-008B
CENTER_NAME    = EARTH
REF_FRAME      = TEME
TIME_SYSTEM    = UTC
MEAN_ELEMENT_THEORY = SGP/SGP4

EPOCH          = 2025-11-18T20:24:31.750272
MEAN_MOTION    = 13.75951547
ECCENTRICITY   = .00361207
INCLINATION    = 82.9275
RA_OF_ASC_NODE = 350.2169
ARG_OF_PERICENTER = 84.6888
MEAN_ANOMALY   = 87.6635

EPHEMERIS_TYPE = 0
CLASSIFICATION_TYPE = U
NORAD_CAT_ID   = 21876
ELEMENT_SET_NO = 999
REV_AT_EPOCH   = 69417
BSTAR          = .12785445E-3
MEAN_MOTION_DOT = .14E-5
MEAN_MOTION_DDOT = 0

CCSDS_OMM_VERS = 2.0
CREATION_DATE  = 
ORIGINATOR     = 

OBJECT_NAME    = SL-8 R/B
OBJECT_ID      = 1992-020B
CENTER_NAME    = EARTH
REF_FRAME      = TEME
TIME_SYSTEM    = UTC
MEAN_ELEMENT_THEORY = SGP/SGP4

EPOCH          = 2025-11-18T16:22:26.086368
MEAN_MOTION    = 13.75522829
ECCENTRICITY   = .00276937
INCLINATION    = 82.9315
RA_OF_ASC_NODE = 236.1799
ARG_OF_PERICENTER = 247.1209
MEAN_ANOMALY   = 130.0371

EPHEMERIS_TYPE = 0
CLASSIFICATION_TYPE = U
NORAD_CAT_ID   = 21938
ELEMENT_SET_NO = 999
REV_AT_EPOCH   = 68587
BSTAR          = .82646181E-4
MEAN_MOTION_DOT = .95E-6
MEAN_MOTION_DDOT = 0

CCSDS_OMM_VERS = 2.0
CREATION_DATE  = 
ORIGINATOR     = 

OBJECT_NAME    = USA 81
OBJECT_ID      = 1992-023A
CENTER_NAME    = EARTH
REF_FRAME      = TEME
TIME_SYSTEM    = UTC
MEAN_ELEMENT_THEORY = SGP/SGP4

EPOCH          = 2025-11-18T22:22:32.946528
MEAN_MOTION    = 14.32315034
ECCENTRICITY   = .00024522
INCLINATION    = 85.0104
RA_OF_ASC_NODE = 195.3042
ARG_OF_PERICENTER = 70.9625
MEAN_ANOMALY   = 289.1833

EPHEMERIS_TYPE = 0
CLASSIFICATION_TYPE = U
NORAD_CAT_ID   = 21949
ELEMENT_SET_NO = 999
REV_AT_EPOCH   = 7893
BSTAR          = .79709637E-4
MEAN_MOTION_DOT = .235E-5
MEAN_MOTION_DDOT = 0

CCSDS_OMM_VERS = 2.0
CREATION_DATE  = 
ORIGINATOR     = 

OBJECT_NAME    = COSMOS 2219
OBJECT_ID      = 1992-076A
CENTER_NAME    = EARTH
REF_FRAME      = TEME
TIME_SYSTEM    = UTC
MEAN_ELEMENT_THEORY = SGP/SGP4

EPOCH          = 2025-11-18T22:56:57.880608
MEAN_MOTION    = 14.14067641
ECCENTRICITY   = .00180849
INCLINATION    = 71.0610
RA_OF_ASC_NODE = 249.5467
ARG_OF_PERICENTER = 0.8811
MEAN_ANOMALY   = 359.2340

EPHEMERIS_TYPE = 0
CLASSIFICATION_TYPE = U
NORAD_CAT_ID   = 22219
ELEMENT_SET_NO = 999
REV_AT_EPOCH   = 70272
BSTAR          = -.16722627E-4
MEAN_MOTION_DOT = -.79E-6
MEAN_MOTION_DDOT = 0

CCSDS_OMM_VERS = 2.0
CREATION_DATE  = 
ORIGINATOR     = 

OBJECT_NAME    = SL-16 R/B
OBJECT_ID      = 1992-076B
CENTER_NAME    = EARTH
REF_FRAME      = TEME
TIME_SYSTEM    = UTC
MEAN_ELEMENT_THEORY = SGP/SGP4

EPOCH          = 2025-11-18T17:35:01.391136
MEAN_MOTION    = 14.16835573
ECCENTRICITY   = .00152359
INCLINATION    = 71.0008
RA_OF_ASC_NODE = 62.1002
ARG_OF_PERICENTER = 265.2779
MEAN_ANOMALY   = 256.4331

EPHEMERIS_TYPE = 0
CLASSIFICATION_TYPE = U
NORAD_CAT_ID   = 22220
ELEMENT_SET_NO = 999
REV_AT_EPOCH   = 70611
BSTAR          = -.32825391E-4
MEAN_MOTION_DOT = -.114E-5
MEAN_MOTION_DDOT = 0

CCSDS_OMM_VERS = 2.0
CREATION_DATE  = 
ORIGINATOR     = 

OBJECT_NAME    = COSMOS 2221
OBJECT_ID      = 1992-080A
CENTER_NAME    = EARTH
REF_FRAME      = TEME
TIME_SYSTEM    = UTC
MEAN_ELEMENT_THEORY = SGP/SGP4

EPOCH          = 2025-11-18T22:25:31.836864
MEAN_MOTION    = 14.95635137
ECCENTRICITY   = .0014135
INCLINATION    = 82.5068
RA_OF_ASC_NODE = 25.1064
ARG_OF_PERICENTER = 199.0775
MEAN_ANOMALY   = 160.9919

EPHEMERIS_TYPE = 0
CLASSIFICATION_TYPE = U
NORAD_CAT_ID   = 22236
ELEMENT_SET_NO = 999
REV_AT_EPOCH   = 76423
BSTAR          = .21230132E-3
MEAN_MOTION_DOT = .2388E-4
MEAN_MOTION_DDOT = 0

