OKEAN-3                 
1 21397U 91039A   25322.73094459  .00003875  00000+0  27887-3 0  9996
2 21397  82.5162  84.2789 0014227 354.4348   5.6718 15.03890055848354
COSMOS 2151             
1 21422U 91042A   25322.86906853  .00001845  00000+0  14764-3 0  9998
2 21422  82.4980 190.5027 0014109  75.0549 285.2236 14.99569677846585
SL-14 R/B               
1 21423U 91042B   25322.94365385  .00000551  00000+0  66972-4 0  9999
2 21423  82.4915 324.0411 0015622 242.6582 117.3043 14.81707874836679
ERS-1                   
1 21574U 91050A   25322.96254630  .00000420  00000+0  14909-3 0  9994
2 21574  98.7917 333.4214 0032205 168.9752 191.2147 14.39339065799803
ARIANE 40 R/B           
1 21610U 91050F   25322.58326407  .00000518  00000+0  16808-3 0  9993
2 21610  98.2202  13.8820 0004090  63.4750 296.6860 14.42784961802974
INTERCOSMOS 25          
1 21819U 91086A   25322.60981637  .00001991  00000+0  39073-3 0  9993
2 21819  82.6086  17.1633 1487924 356.4241   2.7050 12.11623305483232
SL-8 R/B                
1 21876U 92008B   25322.85036748  .00000140  00000+0  12785-3 0  9998
2 21876  82.9275 350.2169 0036120  84.6888  87.6635 13.75951547694178
SL-8 R/B                
1 21938U 92020B   25322.68224637  .00000095  00000+0  82646-4 0  9991
2 21938  82.9315 236.1799 0027693 247.1209 130.0371 13.75522829685875
USA 81                  
1 21949U 92023A   25322.93232577  .00000235  00000+0  79710-4 0  9990
2 21949  85.0104 195.3042 0002452  70.9625 289.1833 14.32315034 78938
COSMOS 2219             
1 22219U 92076A   25322.95622547 -.00000079  00000+0 -16723-4 0  9994
2 22219  71.0610 249.5467 0018084   0.8811 359.2340 14.14067641702727
SL-16 R/B               
1 22220U 92076B   25322.73265499 -.00000114  00000+0 -32825-4 0  9992
2 22220  71.0008  62.1002 0015235 265.2779 256.4331 14.16835573706113
COSMOS 2221             
1 22236U 92080A   25322.93439626  .00002388  00000+0  21230-3 0  9991
2 22236  82.5068  25.1064 0014135 199.0775 160.9919 14.95635137764237
